{
  "links" : {
    "next" : "https://api.nasa.gov/neo/rest/v1/feed?start_date=2007-02-16&end_date=2007-02-16&detailed=true&api_key=t0TVs3DtDT2H8Oy2Zy8m2eVrNsAVKAexjcZXUckd",
    "prev" : "https://api.nasa.gov/neo/rest/v1/feed?start_date=2007-02-14&end_date=2007-02-14&detailed=true&api_key=t0TVs3DtDT2H8Oy2Zy8m2eVrNsAVKAexjcZXUckd",
    "self" : "https://api.nasa.gov/neo/rest/v1/feed?start_date=2007-02-15&end_date=2007-02-15&detailed=true&api_key=t0TVs3DtDT2H8Oy2Zy8m2eVrNsAVKAexjcZXUckd"
  },
  "element_count" : 8,
  "near_earth_objects" : {
    "2007-02-15" : [ {
      "links" : {
        "self" : "https://api.nasa.gov/neo/rest/v1/neo/3743897?api_key=t0TVs3DtDT2H8Oy2Zy8m2eVrNsAVKAexjcZXUckd"
      },
      "neo_reference_id" : "3743897",
      "name" : "(2016 CO246)",
      "nasa_jpl_url" : "http://ssd.jpl.nasa.gov/sbdb.cgi?sstr=3743897",
      "absolute_magnitude_h" : 26.1,
      "estimated_diameter" : {
        "kilometers" : {
          "estimated_diameter_min" : 0.0160160338,
          "estimated_diameter_max" : 0.0358129403
        },
        "meters" : {
          "estimated_diameter_min" : 16.0160337979,
          "estimated_diameter_max" : 35.8129403019
        },
        "miles" : {
          "estimated_diameter_min" : 0.0099518989,
          "estimated_diameter_max" : 0.0222531225
        },
        "feet" : {
          "estimated_diameter_min" : 52.5460443254,
          "estimated_diameter_max" : 117.4965270602
        }
      },
      "is_potentially_hazardous_asteroid" : false,
      "close_approach_data" : [ {
        "close_approach_date" : "2007-02-15",
        "epoch_date_close_approach" : 1171526400000,
        "relative_velocity" : {
          "kilometers_per_second" : "16.0118339203",
          "kilometers_per_hour" : "57642.602113202",
          "miles_per_hour" : "35816.8712963949"
        },
        "miss_distance" : {
          "astronomical" : "0.3845564124",
          "lunar" : "149.5924377441",
          "kilometers" : "57528820",
          "miles" : "35746752"
        },
        "orbiting_body" : "Earth"
      } ],
      "orbital_data" : {
        "orbit_id" : "14",
        "orbit_determination_date" : "2017-08-10 06:19:42",
        "orbit_uncertainty" : "0",
        "minimum_orbit_intersection" : ".0394516",
        "jupiter_tisserand_invariant" : "6.067",
        "epoch_osculation" : "2458000.5",
        "eccentricity" : ".1246907818564904",
        "semi_major_axis" : "1.000117991815979",
        "inclination" : "6.390692956226514",
        "ascending_node_longitude" : "136.9814284476378",
        "orbital_period" : "365.3215462203134",
        "perihelion_distance" : ".8754124974677014",
        "perihelion_argument" : "118.7268402721825",
        "aphelion_distance" : "1.124823486164256",
        "perihelion_time" : "2457895.427361925122",
        "mean_anomaly" : "103.5420716306294",
        "mean_motion" : ".9854332538680756",
        "equinox" : "J2000"
      }
    }, {
      "links" : {
        "self" : "https://api.nasa.gov/neo/rest/v1/neo/2489235?api_key=t0TVs3DtDT2H8Oy2Zy8m2eVrNsAVKAexjcZXUckd"
      },
      "neo_reference_id" : "2489235",
      "name" : "489235 (2006 QA58)",
      "nasa_jpl_url" : "http://ssd.jpl.nasa.gov/sbdb.cgi?sstr=2489235",
      "absolute_magnitude_h" : 20.4,
      "estimated_diameter" : {
        "kilometers" : {
          "estimated_diameter_min" : 0.2210828104,
          "estimated_diameter_max" : 0.4943561926
        },
        "meters" : {
          "estimated_diameter_min" : 221.0828103591,
          "estimated_diameter_max" : 494.3561926196
        },
        "miles" : {
          "estimated_diameter_min" : 0.137374447,
          "estimated_diameter_max" : 0.3071786018
        },
        "feet" : {
          "estimated_diameter_min" : 725.3373275385,
          "estimated_diameter_max" : 1621.9035709942
        }
      },
      "is_potentially_hazardous_asteroid" : false,
      "close_approach_data" : [ {
        "close_approach_date" : "2007-02-15",
        "epoch_date_close_approach" : 1171526400000,
        "relative_velocity" : {
          "kilometers_per_second" : "17.7904122006",
          "kilometers_per_hour" : "64045.4839222442",
          "miles_per_hour" : "39795.3730515745"
        },
        "miss_distance" : {
          "astronomical" : "0.3420882551",
          "lunar" : "133.0723266602",
          "kilometers" : "51175676",
          "miles" : "31799090"
        },
        "orbiting_body" : "Earth"
      } ],
      "orbital_data" : {
        "orbit_id" : "39",
        "orbit_determination_date" : "2017-08-08 06:17:38",
        "orbit_uncertainty" : "0",
        "minimum_orbit_intersection" : ".166702",
        "jupiter_tisserand_invariant" : "5.027",
        "epoch_osculation" : "2458000.5",
        "eccentricity" : ".1729557498952629",
        "semi_major_axis" : "1.249662877873385",
        "inclination" : "26.60443529139089",
        "ascending_node_longitude" : "152.481136969519",
        "orbital_period" : "510.255541961275",
        "perihelion_distance" : "1.033526497714522",
        "perihelion_argument" : "283.673897758612",
        "aphelion_distance" : "1.465799258032249",
        "perihelion_time" : "2458174.271499859570",
        "mean_anomaly" : "237.3991954913588",
        "mean_motion" : ".7055288387780443",
        "equinox" : "J2000"
      }
    } ]
  }
}